{"type": "FeatureCollection", "features": [ {"type": "Feature", "properties": {"norad_id": 30270, "name": "FENGYUN 1C DEB", "group": "fengyun-1c-debris", "lat": -48.46566323433956, "lon": 163.23410576557663, "alt_km": 858.5490783713203, "timestamp": "2025-12-05T05:43:15.384581+00:00", "meta": {"OBJECT_NAME": "FENGYUN 1C DEB", "OBJECT_ID": "1999-025YF", "EPOCH": "2025-12-04T12:20:51.332064", "MEAN_MOTION": 14.11265464, "ECCENTRICITY": 0.0007001, "INCLINATION": 98.7026, "RA_OF_ASC_NODE": 352.4897, "ARG_OF_PERICENTER": 181.7524, "MEAN_ANOMALY": 331.624, "EPHEMERIS_TYPE": 0, "CLASSIFICATION_TYPE": "U", "NORAD_CAT_ID": 30270, "ELEMENT_SET_NO": 999, "REV_AT_EPOCH": 97245, "BSTAR": 0.00023413, "MEAN_MOTION_DOT": 3.8e-06, "MEAN_MOTION_DDOT": 0}, "tle": {"line1": "1 30270U 99025YF  25338.51448301  .00000380  00000+0  23413-3 0  9990", "line2": "2 30270  98.7026 352.4897 0007001 181.7524 331.6240 14.11265464972450"}}, "geometry": {"type": "Point", "coordinates": [163.23410576557663, -48.46566323433956]}}, {"type": "Feature", "properties": {"norad_id": 30272, "name": "FENGYUN 1C DEB", "group": "fengyun-1c-debris", "lat": 7.739815128661217, "lon": 45.73518187319767, "alt_km": 861.8288460224185, "timestamp": "2025-12-05T05:43:15.384592+00:00", "meta": {"OBJECT_NAME": "FENGYUN 1C DEB", "OBJECT_ID": "1999-025YH", "EPOCH": "2025-12-04T16:06:14.477760", "MEAN_MOTION": 14.14655674, "ECCENTRICITY": 0.0051277, "INCLINATION": 98.9021, "RA_OF_ASC_NODE": 46.3902, "ARG_OF_PERICENTER": 126.3217, "MEAN_ANOMALY": 234.2706, "EPHEMERIS_TYPE": 0, "CLASSIFICATION_TYPE": "U", "NORAD_CAT_ID": 30272, "ELEMENT_SET_NO": 999, "REV_AT_EPOCH": 96742, "BSTAR": 0.0025138, "MEAN_MOTION_DOT": 4.854e-05, "MEAN_MOTION_DDOT": 0}, "tle": {"line1": "1 30272U 99025YH  25338.67100090  .00004854  00000+0  25138-2 0  9994", "line2": "2 30272  98.9021  46.3902 0051277 126.3217 234.2706 14.14655674967428"}}, "geometry": {"type": "Point", "coordinates": [45.73518187319767, 7.739815128661217]}}, {"type": "Feature", "properties": {"norad_id": 30273, "name": "FENGYUN 1C DEB", "group": "fengyun-1c-debris", "lat": -48.55436017239072, "lon": 4.172966922926338, "alt_km": 857.6986394431515, "timestamp": "2025-12-05T05:43:15.384602+00:00", "meta": {"OBJECT_NAME": "FENGYUN 1C DEB", "OBJECT_ID": "1999-025YJ", "EPOCH": "2025-12-04T01:10:09.431328", "MEAN_MOTION": 14.0263903, "ECCENTRICITY": 0.00605742, "INCLINATION": 98.8412, "RA_OF_ASC_NODE": 352.8664, "ARG_OF_PERICENTER": 273.9308, "MEAN_ANOMALY": 152.5234, "EPHEMERIS_TYPE": 0, "CLASSIFICATION_TYPE": "U", "NORAD_CAT_ID": 30273, "ELEMENT_SET_NO": 999, "REV_AT_EPOCH": 96407, "BSTAR": 0.00097716466, "MEAN_MOTION_DOT": 1.489e-05, "MEAN_MOTION_DDOT": 0}, "tle": {"line1": "1 30273U 99025YJ  25338.04872027  .00001489  00000+0  97716-3 0  9995", "line2": "2 30273  98.8412 352.8664 0060574 273.9308 152.5234 14.02639030964073"}}, "geometry": {"type": "Point", "coordinates": [4.172966922926338, -48.55436017239072]}}, {"type": "Feature", "properties": {"norad_id": 30274, "name": "FENGYUN 1C DEB", "group": "fengyun-1c-debris", "lat": -73.34427149768248, "lon": -106.10254582466791, "alt_km": 725.5132702850651, "timestamp": "2025-12-05T05:43:15.384613+00:00", "meta": {"OBJECT_NAME": "FENGYUN 1C DEB", "OBJECT_ID": "1999-025YK", "EPOCH": "2025-12-04T07:18:34.937856", "MEAN_MOTION": 14.51349054, "ECCENTRICITY": 0.0004794, "INCLINATION": 99.302, "RA_OF_ASC_NODE": 106.0845, "ARG_OF_PERICENTER": 225.019, "MEAN_ANOMALY": 194.7601, "EPHEMERIS_TYPE": 0, "CLASSIFICATION_TYPE": "U", "NORAD_CAT_ID": 30274, "ELEMENT_SET_NO": 999, "REV_AT_EPOCH": 98088, "BSTAR": 0.0068731, "MEAN_MOTION_DOT": 0.0002745, "MEAN_MOTION_DDOT": 0}, "tle": {"line1": "1 30274U 99025YK  25338.30457104  .00027450  00000+0  68731-2 0  9990", "line2": "2 30274  99.3020 106.0845 0004794 225.0190 194.7601 14.51349054980885"}}, "geometry": {"type": "Point", "coordinates": [-106.10254582466791, -73.34427149768248]}}, {"type": "Feature", "properties": {"norad_id": 30275, "name": "FENGYUN 1C DEB", "group": "fengyun-1c-debris", "lat": 17.99143820222784, "lon": 60.552224055968054, "alt_km": 769.9435906929812, "timestamp": "2025-12-05T05:43:15.384623+00:00", "meta": {"OBJECT_NAME": "FENGYUN 1C DEB", "OBJECT_ID": "1999-025YL", "EPOCH": "2025-12-04T04:57:50.715072", "MEAN_MOTION": 14.45071538, "ECCENTRICITY": 0.0039864, "INCLINATION": 98.6294, "RA_OF_ASC_NODE": 62.3313, "ARG_OF_PERICENTER": 211.3432, "MEAN_ANOMALY": 203.6, "EPHEMERIS_TYPE": 0, "CLASSIFICATION_TYPE": "U", "NORAD_CAT_ID": 30275, "ELEMENT_SET_NO": 999, "REV_AT_EPOCH": 97961, "BSTAR": 0.0059882, "MEAN_MOTION_DOT": 0.00021147, "MEAN_MOTION_DDOT": 0}, "tle": {"line1": "1 30275U 99025YL  25338.20683698  .00021147  00000+0  59882-2 0  9993", "line2": "2 30275  98.6294  62.3313 0039864 211.3432 203.6000 14.45071538979612"}}, "geometry": {"type": "Point", "coordinates": [60.552224055968054, 17.99143820222784]}}, {"type": "Feature", "properties": {"norad_id": 30276, "name": "FENGYUN 1C DEB", "group": "fengyun-1c-debris", "lat": 81.07828016937545, "lon": -45.74987360081037, "alt_km": 777.3707097065108, "timestamp": "2025-12-05T05:43:15.384634+00:00", "meta": {"OBJECT_NAME": "FENGYUN 1C DEB", "OBJECT_ID": "1999-025YM", "EPOCH": "2025-12-04T15:50:02.429376", "MEAN_MOTION": 14.26948973, "ECCENTRICITY": 0.0025612, "INCLINATION": 98.8603, "RA_OF_ASC_NODE": 50.1292, "ARG_OF_PERICENTER": 114.423, "MEAN_ANOMALY": 245.9626, "EPHEMERIS_TYPE": 0, "CLASSIFICATION_TYPE": "U", "NORAD_CAT_ID": 30276, "ELEMENT_SET_NO": 999, "REV_AT_EPOCH": 97415, "BSTAR": 0.0028533, "MEAN_MOTION_DOT": 6.92e-05, "MEAN_MOTION_DDOT": 0}, "tle": {"line1": "1 30276U 99025YM  25338.65975034  .00006920  00000+0  28533-2 0  9992", "line2": "2 30276  98.8603  50.1292 0025612 114.4230 245.9626 14.26948973974157"}}, "geometry": {"type": "Point", "coordinates": [-45.74987360081037, 81.07828016937545]}}, {"type": "Feature", "properties": {"norad_id": 30277, "name": "FENGYUN 1C DEB", "group": "fengyun-1c-debris", "lat": 17.584320485065128, "lon": -127.24816173986791, "alt_km": 775.5292272492543, "timestamp": "2025-12-05T05:43:15.384644+00:00", "meta": {"OBJECT_NAME": "FENGYUN 1C DEB", "OBJECT_ID": "1999-025YN", "EPOCH": "2025-12-04T10:52:34.359744", "MEAN_MOTION": 14.13506099, "ECCENTRICITY": 0.0123956, "INCLINATION": 98.9745, "RA_OF_ASC_NODE": 49.0934, "ARG_OF_PERICENTER": 201.02, "MEAN_ANOMALY": 288.5388, "EPHEMERIS_TYPE": 0, "CLASSIFICATION_TYPE": "U", "NORAD_CAT_ID": 30277, "ELEMENT_SET_NO": 999, "REV_AT_EPOCH": 96672, "BSTAR": 0.0033835, "MEAN_MOTION_DOT": 6.814e-05, "MEAN_MOTION_DDOT": 0}, "tle": {"line1": "1 30277U 99025YN  25338.45317546  .00006814  00000+0  33835-2 0  9992", "line2": "2 30277  98.9745  49.0934 0123956 201.0200 288.5388 14.13506099966723"}}, "geometry": {"type": "Point", "coordinates": [-127.24816173986791, 17.584320485065128]}}, {"type": "Feature", "properties": {"norad_id": 30279, "name": "FENGYUN 1C DEB", "group": "fengyun-1c-debris", "lat": 80.12446341555587, "lon": 161.43027547809703, "alt_km": 649.4591964754845, "timestamp": "2025-12-05T05:43:15.384654+00:00", "meta": {"OBJECT_NAME": "FENGYUN 1C DEB", "OBJECT_ID": "1999-025YQ", "EPOCH": "2025-12-04T12:49:22.123776", "MEAN_MOTION": 14.23051775, "ECCENTRICITY": 0.0219815, "INCLINATION": 99.1489, "RA_OF_ASC_NODE": 272.9249, "ARG_OF_PERICENTER": 96.0277, "MEAN_ANOMALY": 352.6689, "EPHEMERIS_TYPE": 0, "CLASSIFICATION_TYPE": "U", "NORAD_CAT_ID": 30279, "ELEMENT_SET_NO": 999, "REV_AT_EPOCH": 97494, "BSTAR": 0.0011364, "MEAN_MOTION_DOT": 3.236e-05, "MEAN_MOTION_DDOT": 0}, "tle": {"line1": "1 30279U 99025YQ  25338.53428384  .00003236  00000+0  11364-2 0  9994", "line2": "2 30279  99.1489 272.9249 0219815  96.0277 352.6689 14.23051775974942"}}, "geometry": {"type": "Point", "coordinates": [161.43027547809703, 80.12446341555587]}}, {"type": "Feature", "properties": {"norad_id": 30280, "name": "FENGYUN 1C DEB", "group": "fengyun-1c-debris", "lat": 9.353203523793486, "lon": 150.41082639912815, "alt_km": 960.076753866415, "timestamp": "2025-12-05T05:43:15.384664+00:00", "meta": {"OBJECT_NAME": "FENGYUN 1C DEB", "OBJECT_ID": "1999-025YR", "EPOCH": "2025-12-03T22:18:36.855936", "MEAN_MOTION": 13.9832338, "ECCENTRICITY": 0.00809011, "INCLINATION": 98.775, "RA_OF_ASC_NODE": 327.7011, "ARG_OF_PERICENTER": 354.2742, "MEAN_ANOMALY": 71.4236, "EPHEMERIS_TYPE": 0, "CLASSIFICATION_TYPE": "U", "NORAD_CAT_ID": 30280, "ELEMENT_SET_NO": 999, "REV_AT_EPOCH": 96283, "BSTAR": 0.00039054334, "MEAN_MOTION_DOT": 5.31e-06, "MEAN_MOTION_DDOT": 0}, "tle": {"line1": "1 30280U 99025YR  25337.92959324  .00000531  00000+0  39054-3 0  9993", "line2": "2 30280  98.7750 327.7011 0080901 354.2742  71.4236 13.98323380962838"}}, "geometry": {"type": "Point", "coordinates": [150.41082639912815, 9.353203523793486]}}, {"type": "Feature", "properties": {"norad_id": 30281, "name": "FENGYUN 1C DEB", "group": "fengyun-1c-debris", "lat": 63.21652120353478, "lon": -48.53298633749087, "alt_km": 871.0793314220364, "timestamp": "2025-12-05T05:43:15.384675+00:00", "meta": {"OBJECT_NAME": "FENGYUN 1C DEB", "OBJECT_ID": "1999-025YS", "EPOCH": "2025-12-04T12:57:24.927840", "MEAN_MOTION": 14.10464442, "ECCENTRICITY": 0.0027829, "INCLINATION": 98.7563, "RA_OF_ASC_NODE": 328.565, "ARG_OF_PERICENTER": 261.0661, "MEAN_ANOMALY": 218.7088, "EPHEMERIS_TYPE": 0, "CLASSIFICATION_TYPE": "U", "NORAD_CAT_ID": 30281, "ELEMENT_SET_NO": 999, "REV_AT_EPOCH": 97105, "BSTAR": 0.00034961, "MEAN_MOTION_DOT": 5.81e-06, "MEAN_MOTION_DDOT": 0}, "tle": {"line1": "1 30281U 99025YS  25338.53987185  .00000581  00000+0  34961-3 0  9995", "line2": "2 30281  98.7563 328.5650 0027829 261.0661 218.7088 14.10464442971059"}}, "geometry": {"type": "Point", "coordinates": [-48.53298633749087, 63.21652120353478]}}]}